start=new Date('2022-03-26T00:00:00.000Z').valueOf();
sats=[{"RCS_SIZE":"LARGE","ELEMENT_SET_NO":"999","MEAN_MOTION":"15.38485766","ARG_OF_PERICENTER":"43.0910","REF_FRAME":"TEME","OBJECT_ID":"2022-001X","EPHEMERIS_TYPE":"0","BSTAR":"-0.02029100000000","INCLINATION":"53.2176","NORAD_CAT_ID":"50824","REV_AT_EPOCH":"366","PERIAPSIS":"449.512","OBJECT_TYPE":"PAYLOAD","CLASSIFICATION_TYPE":"U","MEAN_MOTION_DOT":"-0.00722339","OBJECT_NAME":"STARLINK-3340","LAUNCH_DATE":"2022-01-06","EPOCH":"2022-03-25T14:00:01.000224","COUNTRY_CODE":"US","GP_ID":"199664716","CENTER_NAME":"EARTH","FILE":"3373822","TLE_LINE2":"2 50824  53.2176 178.4814 0001576  43.0910  20.6465 15.38485766  3665","PERIOD":"93.599","DECAY_DATE":null,"ECCENTRICITY":"0.00015760","TLE_LINE1":"1 50824U 22001X   22084.58334491 -.00722339  00000-0 -20291-1 0  9990","MEAN_ANOMALY":"20.6465","TIME_SYSTEM":"UTC","RA_OF_ASC_NODE":"178.4814","SEMIMAJOR_AXIS":"6828.723","MEAN_ELEMENT_THEORY":"SGP4","MEAN_MOTION_DDOT":"0.0000000000000","APOAPSIS":"451.665","SITE":"AFETR"},{"PERIAPSIS":"450.376","REV_AT_EPOCH":"366","NORAD_CAT_ID":"50825","INCLINATION":"53.2176","BSTAR":"-0.02046600000000","MEAN_MOTION_DOT":"-0.00722449","OBJECT_NAME":"STARLINK-3332","CLASSIFICATION_TYPE":"U","OBJECT_TYPE":"PAYLOAD","ELEMENT_SET_NO":"999","RCS_SIZE":"LARGE","OBJECT_ID":"2022-001Y","EPHEMERIS_TYPE":"0","ARG_OF_PERICENTER":"50.2209","REF_FRAME":"TEME","MEAN_MOTION":"15.38230186","SEMIMAJOR_AXIS":"6829.480","MEAN_ELEMENT_THEORY":"SGP4","RA_OF_ASC_NODE":"178.4820","SITE":"AFETR","APOAPSIS":"452.314","MEAN_MOTION_DDOT":"0.0000000000000","FILE":"3373822","CENTER_NAME":"EARTH","GP_ID":"199665467","COUNTRY_CODE":"US","LAUNCH_DATE":"2022-01-06","EPOCH":"2022-03-25T14:00:01.000224","MEAN_ANOMALY":"351.2727","TIME_SYSTEM":"UTC","TLE_LINE1":"1 50825U 22001Y   22084.58334491 -.00722449  00000-0 -20466-1 0  9997","ECCENTRICITY":"0.00014190","DECAY_DATE":null,"PERIOD":"93.614","TLE_LINE2":"2 50825  53.2176 178.4820 0001419  50.2209 351.2727 15.38230186  3668"},{"MEAN_MOTION_DDOT":"0.0000000000000","SITE":"AFETR","APOAPSIS":"450.329","RA_OF_ASC_NODE":"178.4791","SEMIMAJOR_AXIS":"6827.213","MEAN_ELEMENT_THEORY":"SGP4","PERIOD":"93.567","TLE_LINE2":"2 50826  53.2175 178.4791 0001832  36.0361  71.7286 15.38996408  3665","ECCENTRICITY":"0.00018320","DECAY_DATE":null,"TLE_LINE1":"1 50826U 22001Z   22084.58334491 -.00721275  00000-0 -19920-1 0  9997","MEAN_ANOMALY":"71.7286","TIME_SYSTEM":"UTC","GP_ID":"199664216","LAUNCH_DATE":"2022-01-06","COUNTRY_CODE":"US","EPOCH":"2022-03-25T14:00:01.000224","CENTER_NAME":"EARTH","FILE":"3373822","OBJECT_TYPE":"PAYLOAD","MEAN_MOTION_DOT":"-0.00721275","CLASSIFICATION_TYPE":"U","OBJECT_NAME":"STARLINK-3337","BSTAR":"-0.01992000000000","INCLINATION":"53.2175","PERIAPSIS":"447.827","REV_AT_EPOCH":"366","NORAD_CAT_ID":"50826","MEAN_MOTION":"15.38996408","ARG_OF_PERICENTER":"36.0361","REF_FRAME":"TEME","EPHEMERIS_TYPE":"0","OBJECT_ID":"2022-001Z","RCS_SIZE":"LARGE","ELEMENT_SET_NO":"999"},{"SITE":"AFETR","APOAPSIS":"453.511","MEAN_MOTION_DDOT":"0.0000000000000","MEAN_ELEMENT_THEORY":"SGP4","SEMIMAJOR_AXIS":"6830.616","RA_OF_ASC_NODE":"178.4824","MEAN_ANOMALY":"321.8927","TIME_SYSTEM":"UTC","TLE_LINE1":"1 50827U 22001AA  22084.58334491 -.00721917  00000-0 -20708-1 0  9997","ECCENTRICITY":"0.00015080","DECAY_DATE":null,"TLE_LINE2":"2 50827  53.2175 178.4824 0001508  45.9473 321.8927 15.37846385  3653","PERIOD":"93.637","FILE":"3373822","CENTER_NAME":"EARTH","EPOCH":"2022-03-25T14:00:01.000224","LAUNCH_DATE":"2022-01-06","COUNTRY_CODE":"US","GP_ID":"199664466","CLASSIFICATION_TYPE":"U","MEAN_MOTION_DOT":"-0.00721917","OBJECT_NAME":"STARLINK-3329","OBJECT_TYPE":"PAYLOAD","NORAD_CAT_ID":"50827","REV_AT_EPOCH":"365","PERIAPSIS":"451.451","INCLINATION":"53.2175","BSTAR":"-0.02070800000000","OBJECT_ID":"2022-001AA","EPHEMERIS_TYPE":"0","REF_FRAME":"TEME","ARG_OF_PERICENTER":"45.9473","MEAN_MOTION":"15.37846385","ELEMENT_SET_NO":"999","RCS_SIZE":"LARGE"},{"RCS_SIZE":"LARGE","ELEMENT_SET_NO":"999","MEAN_MOTION":"15.37897859","EPHEMERIS_TYPE":"0","OBJECT_ID":"2022-001AB","REF_FRAME":"TEME","ARG_OF_PERICENTER":"49.2062","BSTAR":"-0.02067700000000","PERIAPSIS":"451.355","REV_AT_EPOCH":"365","NORAD_CAT_ID":"50828","INCLINATION":"53.2175","OBJECT_TYPE":"PAYLOAD","MEAN_MOTION_DOT":"-0.00722029","OBJECT_NAME":"STARLINK-3290","CLASSIFICATION_TYPE":"U","CENTER_NAME":"EARTH","GP_ID":"199665217","LAUNCH_DATE":"2022-01-06","COUNTRY_CODE":"US","EPOCH":"2022-03-25T14:00:01.000224","FILE":"3373822","ECCENTRICITY":"0.00014250","DECAY_DATE":null,"PERIOD":"93.634","TLE_LINE2":"2 50828  53.2175 178.4762 0001425  49.2062 329.9273 15.37897859  3659","MEAN_ANOMALY":"329.9273","TIME_SYSTEM":"UTC","TLE_LINE1":"1 50828U 22001AB  22084.58334491 -.00722029  00000-0 -20677-1 0  9998","RA_OF_ASC_NODE":"178.4762","MEAN_ELEMENT_THEORY":"SGP4","SEMIMAJOR_AXIS":"6830.464","MEAN_MOTION_DDOT":"0.0000000000000","SITE":"AFETR","APOAPSIS":"453.302"},{"MEAN_ELEMENT_THEORY":"SGP4","SEMIMAJOR_AXIS":"6831.374","RA_OF_ASC_NODE":"178.4823","SITE":"AFETR","APOAPSIS":"454.433","MEAN_MOTION_DDOT":"0.0000000000000","FILE":"3373822","CENTER_NAME":"EARTH","LAUNCH_DATE":"2022-01-06","EPOCH":"2022-03-25T14:00:01.000224","COUNTRY_CODE":"US","GP_ID":"199664967","MEAN_ANOMALY":"308.7908","TIME_SYSTEM":"UTC","TLE_LINE1":"1 50829U 22001AC  22084.58334491 -.00721184  00000-0 -20858-1 0  9991","DECAY_DATE":null,"ECCENTRICITY":"0.00017480","TLE_LINE2":"2 50829  53.2174 178.4823 0001748  36.4214 308.7908 15.37590323  3658","PERIOD":"93.653","NORAD_CAT_ID":"50829","PERIAPSIS":"452.045","REV_AT_EPOCH":"365","INCLINATION":"53.2174","BSTAR":"-0.02085800000000","CLASSIFICATION_TYPE":"U","MEAN_MOTION_DOT":"-0.00721184","OBJECT_NAME":"STARLINK-3294","OBJECT_TYPE":"PAYLOAD","ELEMENT_SET_NO":"999","RCS_SIZE":"LARGE","OBJECT_ID":"2022-001AC","EPHEMERIS_TYPE":"0","ARG_OF_PERICENTER":"36.4214","REF_FRAME":"TEME","MEAN_MOTION":"15.37590323"},{"INCLINATION":"53.2175","NORAD_CAT_ID":"50830","REV_AT_EPOCH":"362","PERIAPSIS":"518.493","BSTAR":"-0.04063300000000","MEAN_MOTION_DOT":"-0.00723091","CLASSIFICATION_TYPE":"U","OBJECT_NAME":"STARLINK-3278","OBJECT_TYPE":"PAYLOAD","ELEMENT_SET_NO":"999","RCS_SIZE":"LARGE","ARG_OF_PERICENTER":"39.5704","REF_FRAME":"TEME","OBJECT_ID":"2022-001AD","EPHEMERIS_TYPE":"0","MEAN_MOTION":"15.15398976","MEAN_ELEMENT_THEORY":"SGP4","SEMIMAJOR_AXIS":"6897.905","RA_OF_ASC_NODE":"186.0918","APOAPSIS":"521.046","SITE":"AFETR","MEAN_MOTION_DDOT":"0.0000000000000","FILE":"3373822","COUNTRY_CODE":"US","LAUNCH_DATE":"2022-01-06","EPOCH":"2022-03-25T14:00:01.000224","GP_ID":"199663716","CENTER_NAME":"EARTH","TLE_LINE1":"1 50830U 22001AD  22084.58334491 -.00723091  00000-0 -40633-1 0  9995","MEAN_ANOMALY":"274.1657","TIME_SYSTEM":"UTC","TLE_LINE2":"2 50830  53.2175 186.0918 0001850  39.5704 274.1657 15.15398976  3623","PERIOD":"95.024","DECAY_DATE":null,"ECCENTRICITY":"0.00018500"},{"ARG_OF_PERICENTER":"45.4061","REF_FRAME":"TEME","OBJECT_ID":"2022-001AE","EPHEMERIS_TYPE":"0","MEAN_MOTION":"15.39089759","ELEMENT_SET_NO":"999","RCS_SIZE":"LARGE","OBJECT_NAME":"STARLINK-3299","MEAN_MOTION_DOT":"-0.00720982","CLASSIFICATION_TYPE":"U","OBJECT_TYPE":"PAYLOAD","INCLINATION":"53.2175","NORAD_CAT_ID":"50831","PERIAPSIS":"447.698","REV_AT_EPOCH":"366","BSTAR":"-0.01985100000000","TLE_LINE1":"1 50831U 22001AE  22084.58334491 -.00720982  00000-0 -19851-1 0  9990","MEAN_ANOMALY":"70.5144","TIME_SYSTEM":"UTC","TLE_LINE2":"2 50831  53.2175 178.4784 0001616  45.4061  70.5144 15.39089759  3667","PERIOD":"93.562","ECCENTRICITY":"0.00016160","DECAY_DATE":null,"FILE":"3373822","COUNTRY_CODE":"US","LAUNCH_DATE":"2022-01-06","EPOCH":"2022-03-25T14:00:01.000224","GP_ID":"199663966","CENTER_NAME":"EARTH","APOAPSIS":"449.905","SITE":"AFETR","MEAN_MOTION_DDOT":"0.0000000000000","MEAN_ELEMENT_THEORY":"SGP4","SEMIMAJOR_AXIS":"6826.937","RA_OF_ASC_NODE":"178.4784"},{"FILE":"3374164","GP_ID":"199673632","LAUNCH_DATE":"2022-01-06","COUNTRY_CODE":"US","EPOCH":"2022-03-25T22:00:01.999584","CENTER_NAME":"EARTH","TLE_LINE1":"1 50832U 22001AF  22084.91668981  .00004829  00000-0  32160-3 0  9995","MEAN_ANOMALY":"134.2905","TIME_SYSTEM":"UTC","PERIOD":"95.440","TLE_LINE2":"2 50832  53.2166 184.9415 0002052  41.3265 134.2905 15.08804346 13406","DECAY_DATE":null,"ECCENTRICITY":"0.00020520","SEMIMAJOR_AXIS":"6917.989","MEAN_ELEMENT_THEORY":"SGP4","RA_OF_ASC_NODE":"184.9415","APOAPSIS":"541.274","SITE":"AFETR","MEAN_MOTION_DDOT":"0.0000000000000","ELEMENT_SET_NO":"999","RCS_SIZE":"LARGE","ARG_OF_PERICENTER":"41.3265","REF_FRAME":"TEME","OBJECT_ID":"2022-001AF","EPHEMERIS_TYPE":"0","MEAN_MOTION":"15.08804346","INCLINATION":"53.2166","PERIAPSIS":"538.435","REV_AT_EPOCH":"1340","NORAD_CAT_ID":"50832","BSTAR":"0.00032160000000","MEAN_MOTION_DOT":"0.00004829","CLASSIFICATION_TYPE":"U","OBJECT_NAME":"STARLINK-3328","OBJECT_TYPE":"PAYLOAD"},{"RCS_SIZE":"LARGE","ELEMENT_SET_NO":"999","MEAN_MOTION":"15.38868839","EPHEMERIS_TYPE":"0","OBJECT_ID":"2022-001AG","REF_FRAME":"TEME","ARG_OF_PERICENTER":"39.0305","BSTAR":"-0.02001700000000","PERIAPSIS":"448.279","REV_AT_EPOCH":"366","NORAD_CAT_ID":"50833","INCLINATION":"53.2175","OBJECT_TYPE":"PAYLOAD","MEAN_MOTION_DOT":"-0.00721695","OBJECT_NAME":"STARLINK-3316","CLASSIFICATION_TYPE":"U","CENTER_NAME":"EARTH","GP_ID":"199665468","LAUNCH_DATE":"2022-01-06","COUNTRY_CODE":"US","EPOCH":"2022-03-25T14:00:01.000224","FILE":"3373822","ECCENTRICITY":"0.00017220","DECAY_DATE":null,"PERIOD":"93.575","TLE_LINE2":"2 50833  53.2175 178.4798 0001722  39.0305  57.7850 15.38868839  3666","MEAN_ANOMALY":"57.7850","TIME_SYSTEM":"UTC","TLE_LINE1":"1 50833U 22001AG  22084.58334491 -.00721695  00000-0 -20017-1 0  9990","RA_OF_ASC_NODE":"178.4798","MEAN_ELEMENT_THEORY":"SGP4","SEMIMAJOR_AXIS":"6827.590","MEAN_MOTION_DDOT":"0.0000000000000","APOAPSIS":"450.631","SITE":"AFETR"}];
